{"type": "FeatureCollection", "features": [ {"type": "Feature", "properties": {"norad_id": 65304, "name": "DRAGON CRS-33", "group": "stations", "lat": -12.326682922219216, "lon": 99.6533894174744, "alt_km": 419.2993174059884, "timestamp": "2025-12-19T08:58:48.108680+00:00", "meta": {"OBJECT_NAME": "DRAGON CRS-33", "OBJECT_ID": "2025-186A", "EPOCH": "2025-12-18T16:01:23.678688", "MEAN_MOTION": 15.49654558, "ECCENTRICITY": 0.00031819, "INCLINATION": 51.6314, "RA_OF_ASC_NODE": 113.1238, "ARG_OF_PERICENTER": 267.6136, "MEAN_ANOMALY": 92.4488, "EPHEMERIS_TYPE": 0, "CLASSIFICATION_TYPE": "U", "NORAD_CAT_ID": 65304, "ELEMENT_SET_NO": 999, "REV_AT_EPOCH": 11, "BSTAR": 0.000138424, "MEAN_MOTION_DOT": 7.358e-05, "MEAN_MOTION_DDOT": 0}, "tle": {"line1": "1 65304U 25186A   25352.66763517  .00007358  00000+0  13842-3 0  9991", "line2": "2 65304  51.6314 113.1238 0003181 267.6136  92.4488 15.49654558   112"}}, "geometry": {"type": "Point", "coordinates": [99.6533894174744, -12.326682922219216]}}, {"type": "Feature", "properties": {"norad_id": 65586, "name": "PROGRESS-MS 32", "group": "stations", "lat": -12.326682423509967, "lon": 99.65338983722528, "alt_km": 419.2993173775467, "timestamp": "2025-12-19T08:58:48.108690+00:00", "meta": {"OBJECT_NAME": "PROGRESS-MS 32", "OBJECT_ID": "2025-204A", "EPOCH": "2025-12-18T16:01:23.678688", "MEAN_MOTION": 15.49654558, "ECCENTRICITY": 0.00031819, "INCLINATION": 51.6314, "RA_OF_ASC_NODE": 113.1238, "ARG_OF_PERICENTER": 267.6136, "MEAN_ANOMALY": 92.4488, "EPHEMERIS_TYPE": 0, "CLASSIFICATION_TYPE": "U", "NORAD_CAT_ID": 65586, "ELEMENT_SET_NO": 999, "REV_AT_EPOCH": 27, "BSTAR": 0.000138424, "MEAN_MOTION_DOT": 7.358e-05, "MEAN_MOTION_DDOT": 0}, "tle": {"line1": "1 65586U 25204A   25352.66763517  .00007358  00000+0  13842-3 0  9994", "line2": "2 65586  51.6314 113.1238 0003181 267.6136  92.4488 15.49654558   271"}}, "geometry": {"type": "Point", "coordinates": [99.65338983722528, -12.326682423509967]}}, {"type": "Feature", "properties": {"norad_id": 65616, "name": "CYGNUS NG-23", "group": "stations", "lat": -12.32668192480134, "lon": 99.65339025697561, "alt_km": 419.29931734910497, "timestamp": "2025-12-19T08:58:48.108700+00:00", "meta": {"OBJECT_NAME": "CYGNUS NG-23", "OBJECT_ID": "2025-208A", "EPOCH": "2025-12-18T16:01:23.678688", "MEAN_MOTION": 15.49654558, "ECCENTRICITY": 0.00031819, "INCLINATION": 51.6314, "RA_OF_ASC_NODE": 113.1238, "ARG_OF_PERICENTER": 267.6136, "MEAN_ANOMALY": 92.4488, "EPHEMERIS_TYPE": 0, "CLASSIFICATION_TYPE": "U", "NORAD_CAT_ID": 65616, "ELEMENT_SET_NO": 999, "REV_AT_EPOCH": 22, "BSTAR": 0.000138424, "MEAN_MOTION_DOT": 7.358e-05, "MEAN_MOTION_DDOT": 0}, "tle": {"line1": "1 65616U 25208A   25352.66763517  .00007358  00000+0  13842-3 0  9992", "line2": "2 65616  51.6314 113.1238 0003181 267.6136  92.4488 15.49654558   220"}}, "geometry": {"type": "Point", "coordinates": [99.65339025697561, -12.32668192480134]}}, {"type": "Feature", "properties": {"norad_id": 65729, "name": "DRAGONFLY", "group": "stations", "lat": 13.125608951516753, "lon": -88.91610458948901, "alt_km": 350.3168542680196, "timestamp": "2025-12-19T08:58:48.108710+00:00", "meta": {"OBJECT_NAME": "DRAGONFLY", "OBJECT_ID": "1998-067XH", "EPOCH": "2025-12-18T14:00:17.390304", "MEAN_MOTION": 15.73865471, "ECCENTRICITY": 0.0007166, "INCLINATION": 51.6249, "RA_OF_ASC_NODE": 105.7955, "ARG_OF_PERICENTER": 314.6867, "MEAN_ANOMALY": 45.3548, "EPHEMERIS_TYPE": 0, "CLASSIFICATION_TYPE": "U", "NORAD_CAT_ID": 65729, "ELEMENT_SET_NO": 999, "REV_AT_EPOCH": 1408, "BSTAR": 0.001129306, "MEAN_MOTION_DOT": 0.00166206, "MEAN_MOTION_DDOT": 0}, "tle": {"line1": "1 65729U 98067XH  25352.58353461  .00166206  00000+0  11293-2 0  9999", "line2": "2 65729  51.6249 105.7955 0007166 314.6867  45.3548 15.73865471 14084"}}, "geometry": {"type": "Point", "coordinates": [-88.91610458948901, 13.125608951516753]}}, {"type": "Feature", "properties": {"norad_id": 65731, "name": "1998-067XK", "group": "stations", "lat": 21.447828951015342, "lon": 121.67430858370845, "alt_km": 365.7544666023714, "timestamp": "2025-12-19T08:58:48.108720+00:00", "meta": {"OBJECT_NAME": "1998-067XK", "OBJECT_ID": "1998-067XK", "EPOCH": "2025-12-18T14:29:38.955840", "MEAN_MOTION": 15.66848038, "ECCENTRICITY": 0.0004791, "INCLINATION": 51.6292, "RA_OF_ASC_NODE": 107.4546, "ARG_OF_PERICENTER": 283.3796, "MEAN_ANOMALY": 76.6665, "EPHEMERIS_TYPE": 0, "CLASSIFICATION_TYPE": "U", "NORAD_CAT_ID": 65731, "ELEMENT_SET_NO": 999, "REV_AT_EPOCH": 1406, "BSTAR": 0.00083587979, "MEAN_MOTION_DOT": 0.00090673, "MEAN_MOTION_DDOT": 0}, "tle": {"line1": "1 65731U 98067XK  25352.60392310  .00090673  00000+0  83588-3 0  9992", "line2": "2 65731  51.6292 107.4546 0004791 283.3796  76.6665 15.66848038 14061"}}, "geometry": {"type": "Point", "coordinates": [121.67430858370845, 21.447828951015342]}}, {"type": "Feature", "properties": {"norad_id": 65732, "name": "RSP-03", "group": "stations", "lat": 48.955890006547804, "lon": 168.20609184957442, "alt_km": 354.31815292033207, "timestamp": "2025-12-19T08:58:48.108733+00:00", "meta": {"OBJECT_NAME": "RSP-03", "OBJECT_ID": "1998-067XL", "EPOCH": "2025-12-18T12:48:30.107520", "MEAN_MOTION": 15.70075461, "ECCENTRICITY": 0.00056659, "INCLINATION": 51.6263, "RA_OF_ASC_NODE": 106.9735, "ARG_OF_PERICENTER": 289.7816, "MEAN_ANOMALY": 70.257, "EPHEMERIS_TYPE": 0, "CLASSIFICATION_TYPE": "U", "NORAD_CAT_ID": 65732, "ELEMENT_SET_NO": 999, "REV_AT_EPOCH": 1407, "BSTAR": 0.00097504064, "MEAN_MOTION_DOT": 0.00121384, "MEAN_MOTION_DDOT": 0}, "tle": {"line1": "1 65732U 98067XL  25352.53368180  .00121384  00000+0  97504-3 0  9990", "line2": "2 65732  51.6263 106.9735 0005665 289.7816  70.2570 15.70075461 14071"}}, "geometry": {"type": "Point", "coordinates": [168.20609184957442, 48.955890006547804]}}, {"type": "Feature", "properties": {"norad_id": 65733, "name": "GHS-01", "group": "stations", "lat": 19.469776056410332, "lon": -95.26063366716195, "alt_km": 340.1278516450848, "timestamp": "2025-12-19T08:58:48.108746+00:00", "meta": {"OBJECT_NAME": "GHS-01", "OBJECT_ID": "1998-067XM", "EPOCH": "2025-12-18T21:41:04.642944", "MEAN_MOTION": 15.77485683, "ECCENTRICITY": 0.00079897, "INCLINATION": 51.6277, "RA_OF_ASC_NODE": 103.4385, "ARG_OF_PERICENTER": 320.4925, "MEAN_ANOMALY": 39.5492, "EPHEMERIS_TYPE": 0, "CLASSIFICATION_TYPE": "U", "NORAD_CAT_ID": 65733, "ELEMENT_SET_NO": 999, "REV_AT_EPOCH": 1415, "BSTAR": 0.001190379, "MEAN_MOTION_DOT": 0.00206465, "MEAN_MOTION_DDOT": 0}, "tle": {"line1": "1 65733U 98067XM  25352.90352596  .00206465  00000+0  11904-2 0  9999", "line2": "2 65733  51.6277 103.4385 0007989 320.4925  39.5492 15.77485683 14153"}}, "geometry": {"type": "Point", "coordinates": [-95.26063366716195, 19.469776056410332]}}, {"type": "Feature", "properties": {"norad_id": 65941, "name": "YOTSUBA-KULOVER", "group": "stations", "lat": -4.783064715236616, "lon": 102.80571938561299, "alt_km": 387.1678185763267, "timestamp": "2025-12-19T08:58:48.108756+00:00", "meta": {"OBJECT_NAME": "YOTSUBA-KULOVER", "OBJECT_ID": "1998-067XN", "EPOCH": "2025-12-18T09:56:54.884832", "MEAN_MOTION": 15.60208015, "ECCENTRICITY": 0.00016606, "INCLINATION": 51.6285, "RA_OF_ASC_NODE": 111.4386, "ARG_OF_PERICENTER": 311.4961, "MEAN_ANOMALY": 48.5889, "EPHEMERIS_TYPE": 0, "CLASSIFICATION_TYPE": "U", "NORAD_CAT_ID": 65941, "ELEMENT_SET_NO": 999, "REV_AT_EPOCH": 1074, "BSTAR": 0.0007945309, "MEAN_MOTION_DOT": 0.00066041, "MEAN_MOTION_DDOT": 0}, "tle": {"line1": "1 65941U 98067XN  25352.41452413  .00066041  00000+0  79453-3 0  9993", "line2": "2 65941  51.6285 111.4386 0001660 311.4961  48.5889 15.60208015 10748"}}, "geometry": {"type": "Point", "coordinates": [102.80571938561299, -4.783064715236616]}}, {"type": "Feature", "properties": {"norad_id": 65942, "name": "BOTAN", "group": "stations", "lat": 37.18837608233746, "lon": 142.6940759723817, "alt_km": 371.3736676501767, "timestamp": "2025-12-19T08:58:48.108766+00:00", "meta": {"OBJECT_NAME": "BOTAN", "OBJECT_ID": "1998-067XP", "EPOCH": "2025-12-18T09:45:54.006048", "MEAN_MOTION": 15.64050786, "ECCENTRICITY": 0.00028482, "INCLINATION": 51.6278, "RA_OF_ASC_NODE": 110.6371, "ARG_OF_PERICENTER": 287.2475, "MEAN_ANOMALY": 72.8208, "EPHEMERIS_TYPE": 0, "CLASSIFICATION_TYPE": "U", "NORAD_CAT_ID": 65942, "ELEMENT_SET_NO": 999, "REV_AT_EPOCH": 1075, "BSTAR": 0.0010814457, "MEAN_MOTION_DOT": 0.00105165, "MEAN_MOTION_DDOT": 0}, "tle": {"line1": "1 65942U 98067XP  25352.40687507  .00105165  00000+0  10814-2 0  9993", "line2": "2 65942  51.6278 110.6371 0002848 287.2475  72.8208 15.64050786 10755"}}, "geometry": {"type": "Point", "coordinates": [142.6940759723817, 37.18837608233746]}}, {"type": "Feature", "properties": {"norad_id": 65943, "name": "E-KAGAKU-1", "group": "stations", "lat": -5.234167566876943, "lon": 102.45120215171993, "alt_km": 388.22497705653495, "timestamp": "2025-12-19T08:58:48.108776+00:00", "meta": {"OBJECT_NAME": "E-KAGAKU-1", "OBJECT_ID": "1998-067XQ", "EPOCH": "2025-12-18T08:24:49.666176", "MEAN_MOTION": 15.60193795, "ECCENTRICITY": 0.00013451, "INCLINATION": 51.6302, "RA_OF_ASC_NODE": 111.7666, "ARG_OF_PERICENTER": 249.8249, "MEAN_ANOMALY": 110.26, "EPHEMERIS_TYPE": 0, "CLASSIFICATION_TYPE": "U", "NORAD_CAT_ID": 65943, "ELEMENT_SET_NO": 999, "REV_AT_EPOCH": 1073, "BSTAR": 0.00084619625, "MEAN_MOTION_DOT": 0.00070368, "MEAN_MOTION_DDOT": 0}, "tle": {"line1": "1 65943U 98067XQ  25352.35057484  .00070368  00000+0  84620-3 0  9996", "line2": "2 65943  51.6302 111.7666 0001345 249.8249 110.2600 15.60193795 10732"}}, "geometry": {"type": "Point", "coordinates": [102.45120215171993, -5.234167566876943]}}]}